STARLINK-1811
1 16710C 20073AS  21326.13749077  .00002520  00000-0  16880-3 0  3261
2 16710  53.0541  98.1339 0001085  86.2970 201.9691 15.06407012    12
